[{"OBJECT_NAME":"STARLINK-1335","OBJECT_ID":"2020-025BC","EPOCH":"2026-03-09T07:27:43.349760","MEAN_MOTION":15.29356205,"ECCENTRICITY":0.00014789,"INCLINATION":53.1576,"RA_OF_ASC_NODE":76.8114,"ARG_OF_PERICENTER":99.6562,"MEAN_ANOMALY":260.4606,"EPHEMERIS_TYPE":0,"CLASSIFICATION_TYPE":"U","NORAD_CAT_ID":45581,"ELEMENT_SET_NO":999,"REV_AT_EPOCH":32547,"BSTAR":-9.019254e-6,"MEAN_MOTION_DOT":-6.16e-6,"MEAN_MOTION_DDOT":0},{"OBJECT_NAME":"HAWK-11C","OBJECT_ID":"2024-247E","EPOCH":"2026-03-09T12:17:35.407968","MEAN_MOTION":15.2884802,"ECCENTRICITY":0.00059001,"INCLINATION":45.0045,"RA_OF_ASC_NODE":114.8762,"ARG_OF_PERICENTER":329.704,"MEAN_ANOMALY":30.3502,"EPHEMERIS_TYPE":0,"CLASSIFICATION_TYPE":"U","NORAD_CAT_ID":62381,"ELEMENT_SET_NO":999,"REV_AT_EPOCH":6774,"BSTAR":0.00033290115,"MEAN_MOTION_DOT":9.223e-5,"MEAN_MOTION_DDOT":0}]
